#dP2022 11 23 18  0  0.00000000      96 __u+U ITR00 EXT  IAC
## 2237 324000.00000000   900.00000000 59906 0.7500000000000
+  118   C06C07C08C09C10C11C12C13C14C16C19C20C21C22C23C24C25
+        C26C27C28C29C30C32C33C34C35C36C37C38C39C40C41C42C43
+        C44C45C46E01E02E03E04E05E07E08E09E10E11E12E13E14E15
+        E18E19E21E24E25E26E27E30E31E33E34E36G01G02G03G04G05
+        G06G07G08G09G10G11G12G13G14G15G16G17G18G19G20G21G22
+        G23G24G25G26G27G29G30G31G32J02J03J04R01R02R03R04R05
+        R07R08R09R11R12R13R14R15R17R18R19R20R21R22R24R25  0
++        11  7  9 10  8  9  9  9  9 10  9  8  8  8  9  9  9
++         8  9  8  8  8  8  9  7  9  9 10 12 11 10 10  8  8
++         8  8  9  7  8  8  5  8  8  9  8 10  8  9  6 10  8
++         8  8  8  7  7  8  6  8  6  8  8  7  6  8  6  8  7
++         7  7  8  7  8  8  9  7  6  8  7  9  8  7  7  8  8
++         8  7  7  8  7  6  6  5  7 10 10  9  8  7  7  8  9
++         8  9 10  7 10  7  6 10  8  7  8  9  9 10  7  8  0
%c M  cc GPS ccc cccc cccc cccc cccc ccccc ccccc ccccc ccccc
%c cc cc ccc ccc cccc cccc cccc cccc ccccc ccccc ccccc ccccc
%f  0.0000000  0.000000000  0.00000000000  0.000000000000000
%f  0.0000000  0.000000000  0.00000000000  0.000000000000000
%i    0    0    0    0      0      0      0      0         0
%i    0    0    0    0      0      0      0      0         0
/* IAC                                ULTRA-RAPID PREDICTION
/* S/V CLOCKS ARE ALIGNED TO GNSS TIME                      
/* G:C1WC2W R:C1PC2P E:C1XC5X C:C2IC6I J:C1CC2S             
/* PCV:IGS14_2233 OL/AL:FES2004  NONE     YN ORB:CoN CLK:CoN
*  2022 11 24  9 30  0.00000000
PC06 -17040.167247  30252.849320  23765.561035     -5.984682
PC07  -5684.507999  39697.514796  13324.346998    170.002955
PC08  -3362.976519  21232.850450 -36252.068843    515.783996
PC09  -8764.395176  28851.294704  29628.625582   -799.293277
PC10    135.248419  41872.526594   7167.036410     63.079920
PC11  18875.086081 -19601.172818   6187.053180   -274.335886
PC12  23784.358272  -9245.524588 -11230.485958    315.394191
PC13   5345.882795  25163.619647 -33172.076334    141.279002
PC14   7728.645342 -21354.016922  16197.570390    204.211228
PC16 -21923.846840  29847.359673  20081.040260    112.331643
PC19  -1302.250206  26620.804689  -8270.627368   -910.537666
PC20 -11938.797896  14439.031400 -20682.573396    827.732258
PC21  16152.856269   7438.363790  21517.557852   -890.307875
PC22  10535.160514  24044.029813   9485.115574   -776.526152
PC23 -16678.875665 -17294.419954 -14201.672276   -875.167419
PC24  21418.870026  -5052.247416 -17153.824350   -764.685762
PC25   1759.989556 -16475.334943 -22466.457546     29.367381
PC26  26795.638313   7010.186452  -3244.437511    -40.384215
PC27 -21576.765608   1565.020360  17606.383828     56.116826
PC28  -8687.267467 -13398.012072  22892.873878     39.568900
PC29  -9783.625798  21758.535100 -14480.331689     44.724385
PC30 -22302.719639  16491.504365   2967.090797      1.042607
PC32 -16209.057969  -7413.256370 -21463.394717   -706.532098
PC33   1244.146873 -26582.152672   8387.367709   -905.693249
PC34  21951.221550 -17152.054696  -1827.152031     46.256946
PC35   7747.136554  14265.928093 -22700.183519    102.577258
PC36  -2897.294531  16206.514859  22551.736290   -817.399924
PC37 -26511.230409  -8546.987685   1951.613419   -908.235244
PC38 -12063.596907  19749.928620 -35233.698157     40.306205
PC39 -24188.815042  30652.656834  15675.261004     -0.938976
PC40 -10734.774974  36894.169273  17597.814136     -8.773222
PC41 -10317.638901 -24337.002961  -8906.949359   -308.885207
PC42  12542.700501 -13188.815325  21186.928879   -723.215043
PC43  10509.995758 -21849.750503  13828.423924     26.617106
PC44  21513.617311  -2086.987419 -17674.484389    123.837735
PC45  16998.035710  17137.922572  13976.880849    -26.340489
PC46 -20158.996063   6220.192845  18286.918774    -15.109015
PE01  -6869.126613 -24806.727363 -14623.816275   -568.369581
PE02   7060.487795  24844.769940  14439.235489      4.510040
PE03  -2604.938254  27452.686285  10756.123262   -623.109597
PE04      0.000000      0.000000      0.000000  -1165.348127
PE05 -15387.567312  24016.577774  -7910.958357   -121.590549
PE07  19014.778395  -6662.470815  21679.693263     -1.811865
PE08  11290.142127  14956.691513  22905.980048   -637.549430
PE09 -18862.354865   6530.574046 -21865.354452   -740.279779
PE10 -26964.952305  -3397.755957  11739.193359   -493.042635
PE11 -29348.364414   3527.781913   1495.730347   1179.889987
PE12 -20545.877532  -9386.624145  19126.717321   -294.144589
PE13  29347.084852  -3010.378975  -2403.401488    430.542727
PE14  14506.116968  14915.041804 -23913.291434     65.581270
PE15  20318.076478   9431.336110 -19337.691646    705.377203
PE18 -17498.519960    -16.659210  18141.097136   -706.577212
PE19   4712.458317 -27978.712977  -8452.130996  -3915.612814
PE21   9085.205855 -14845.238911 -23942.384186   -496.460477
PE24 -21423.059727  -5340.540800  19719.895634   -964.752325
PE25  -9359.713509  14573.700685  24010.273676   -593.403499
PE26  20365.496068 -13931.671338  16351.369752  -1881.588871
PE27  21106.038423   4301.992182 -20290.236778   -447.119841
PE30  20222.617138  21225.859477  -4009.836369  -1023.885014
PE31 -20598.208204 -20732.976670   4741.228010   -508.963362
PE33    643.211645 -16229.049887  24753.898511   -455.591406
PE34   -427.770316  16211.790526 -24763.754219    -16.204544
PE36 -21085.850610  13546.249478 -15744.097896   -465.476433
PG01   9490.607723  13446.493111 -21234.464496    247.201434
PG02 -12470.703129 -12389.786135  20484.211982   -636.379539
PG03  11608.727985  23405.169913  -5218.632651   -374.082571
PG04   3149.605965  19876.293864  17281.836275    -80.849291
PG05  -1638.277819 -20895.189005  16069.360792   -105.502967
PG06  24820.186815  -6369.671814   7205.529385    525.610527
PG07  22771.795577   7354.556123  12454.466408    283.463274
PG08  -4595.789381  24532.505696  -8555.616684    -95.355280
PG09  12196.475376   9752.811201  21399.189628   -263.934601
PG10 -18104.582081  -3708.112996 -19037.024594    -13.235574
PG11  16459.750619 -12089.527340  16968.576722    -44.884615
PG12  -9300.441184 -24270.319620  -6003.347880   -307.974397
PG13  12787.776699 -22982.909066  -3056.462071    430.214120
PG14  18789.454181   5952.162237 -17849.407278    -78.585968
PG15   1122.319361 -24965.409640  -9010.845473     -9.766350
PG16  -4797.215515  17814.545479  18645.323690   -526.796755
PG17  17363.811355  -4371.535595 -19201.962741    680.549471
PG18 -23882.241238  -5746.936171  10285.946429    -33.673973
PG19  18749.412378 -14026.207025 -12515.601537    241.564974
PG20   8945.116197 -12994.274777  21405.246984    467.990665
PG21    552.918716  14963.885842 -21293.512235    155.370596
PG22 -17695.354677  17088.855075  -9361.543475    370.990320
PG23 -19668.171552 -13617.677800 -11693.349405     -0.785598
PG24  -5602.087256 -15170.701821 -21441.143601     45.567820
PG25 -16961.498066 -20307.024292   3364.969687    395.668161
PG26 -13041.227941   8790.001991  21313.565163    236.695753
PG27 -12635.459571  22998.451559   2049.463950    170.551725
PG29  -9591.180627 -12245.769776  21474.082812   -569.385672
PG30  26670.023895   -770.459830   1111.430280   -536.363318
PG31 -24516.272380   6961.683281   8115.584704   -201.179518
PG32 -17679.697145   7811.356507 -17976.760069   -306.731077
PJ02 -25312.772727  22824.551037  29908.433351     -0.182582
PJ03 -35098.285211  21738.142258  -3783.663164     -5.251691
PJ04 -20203.221233  28085.982891 -18988.496093    113.609469
PR01 -10713.064903   5915.298513 -22386.696343     18.419343
PR02  -5722.875424  22342.211758 -10781.355576    -23.377283
PR03   2605.998592  24477.660513   6599.603798     67.856148
PR04   8991.047691  13032.395610  20014.715516    166.089034
PR05  10669.145598  -5535.211650  22507.579990    103.433808
PR07  -2877.007157 -24313.946495  -7226.481742     44.893305
PR08  -9151.187997 -12930.204333 -19954.710426    -68.232046
PR09   5366.560755  -9944.935770 -22851.044741     89.328533
PR11 -21718.324975 -13317.534562  -1134.450586     18.998131
PR12 -19410.581841  -2451.760738  16403.170513     23.123418
PR13  -6793.344478   8776.068747  22951.822682    -29.233895
PR14  11632.242413  15964.835419  16158.495655     24.100663
PR15  21851.549411  13159.517383    111.849429     92.760480
PR17   -800.221027  12049.304260 -22460.515725    580.930405
PR18  14883.031381   2552.998929 -20550.739540     53.547364
PR19  22816.880284  -6775.890651  -9154.372087   -212.108770
PR20  17796.858632 -14385.657922  11320.424413    -82.729260
PR21   -827.017854 -11244.503998  22883.379075   -352.178342
PR22 -15488.931773  -3008.526935  20069.487677     19.526907
PR24 -16817.330070  15163.178158 -11741.573967    128.472153
PR25   1624.279675 -12403.711841  22234.855699     47.142240
EOF
